[{"OBJECT_NAME":"STARLINK-30224","OBJECT_ID":"2023-102N","EPOCH":"2026-03-09T22:00:01.999584","MEAN_MOTION":15.1597228,"ECCENTRICITY":0.00017033,"INCLINATION":43.0005,"RA_OF_ASC_NODE":246.5259,"ARG_OF_PERICENTER":277.718,"MEAN_ANOMALY":82.2955,"EPHEMERIS_TYPE":0,"CLASSIFICATION_TYPE":"U","NORAD_CAT_ID":57416,"ELEMENT_SET_NO":999,"REV_AT_EPOCH":577,"BSTAR":0.0051457482,"MEAN_MOTION_DOT":0.00101766,"MEAN_MOTION_DDOT":0},{"OBJECT_NAME":"CZ-6A DEB","OBJECT_ID":"2022-151MM","EPOCH":"2026-03-09T16:36:35.308512","MEAN_MOTION":15.08432741,"ECCENTRICITY":0.0037582,"INCLINATION":98.6255,"RA_OF_ASC_NODE":147.7512,"ARG_OF_PERICENTER":182.2642,"MEAN_ANOMALY":177.8419,"EPHEMERIS_TYPE":0,"CLASSIFICATION_TYPE":"U","NORAD_CAT_ID":54585,"ELEMENT_SET_NO":999,"REV_AT_EPOCH":10505,"BSTAR":0.0062350664,"MEAN_MOTION_DOT":0.00099853,"MEAN_MOTION_DDOT":0}]
